IRIDIUM 166             
1 43570U 18061B   23302.88484163  .00000159  00000+0  49705-4 0  9990
2 43570  86.3924  98.5060 0002041  98.0782 262.0646 14.34216314275618
IRIDIUM 158             
1 43571U 18061C   23302.92289798  .00000044  00000+0  84776-5 0  9994
2 43571  86.3925  98.4989 0002403  97.6810 262.4659 14.34216505275584
IRIDIUM 165             
1 43572U 18061D   23302.94826779  .00000023  00000+0  12282-5 0  9993
2 43572  86.3928  98.5168 0002414  97.2039 262.9431 14.34217564275612
IRIDIUM 155             
1 43573U 18061E   23302.91021353  .00000155  00000+0  48392-4 0  9992
2 43573  86.3921  98.4488 0001839  90.7683 269.3724 14.34217779275572
IRIDIUM 154             
1 43574U 18061F   23302.89118208  .00000162  00000+0  50758-4 0  9993
2 43574  86.3927  98.5435 0002242  86.0078 274.1374 14.34219225275626
IRIDIUM 163             
1 43575U 18061G   23302.94192539 -.00000031  00000+0 -18101-4 0  9992
2 43575  86.3927  98.4678 0002084  90.8930 269.2505 14.34215813275607
IRIDIUM 156             
1 43576U 18061H   23302.91655959  .00000160  00000+0  50194-4 0  9999
2 43576  86.3923  98.4841 0002050  97.6953 262.4476 14.34218683275597
IRIDIUM 164             
1 43577U 18061J   23302.89752751  .00000006  00000+0 -48162-5 0  9998
2 43577  86.3925  98.5175 0002190  95.3862 264.7583 14.34216934275636
